{
  "type": "FeatureCollection",
  "features": [
    {
      "type": "Feature",
      "properties": {
        "norad_id": 66378,
        "name": "SHIYAN-32 02",
        "group": "last-30-days",
        "lat": -52.0679756142104,
        "lon": 117.41493292825548,
        "alt_km": 441.49597170246943,
        "timestamp": "2025-12-03T10:52:56.220764+00:00",
        "meta_object_name": "SHIYAN-32 02",
        "meta_object_id": "2025-255C",
        "meta_epoch": "2025-12-03T03:32:31.882272",
        "meta_mean_motion": 15.44084995,
        "meta_eccentricity": 0.0012368,
        "meta_inclination": 52.9971,
        "meta_ra_of_asc_node": 223.4835,
        "meta_arg_of_pericenter": 9.8117,
        "meta_mean_anomaly": 350.3126,
        "meta_ephemeris_type": 0,
        "meta_classification_type": "U",
        "meta_norad_cat_id": 66378,
        "meta_element_set_no": 999,
        "meta_rev_at_epoch": 373,
        "meta_bstar": 0.0020674,
        "meta_mean_motion_dot": 0.0009704,
        "meta_mean_motion_ddot": 0,
        "tle_line1": "1 66378U 25255C   25337.14759123  .00097040  00000+0  20674-2 0  9991",
        "tle_line2": "2 66378  52.9971 223.4835 0012368   9.8117 350.3126 15.44084995  3730"
      },
      "geometry": {
        "type": "Point",
        "coordinates": [
          117.41493292825548,
          -52.0679756142104
        ]
      }
    },
    {
      "type": "Feature",
      "properties": {
        "norad_id": 66379,
        "name": "SHIYAN-32 03",
        "group": "last-30-days",
        "lat": -14.441916638322514,
        "lon": 53.351602593313956,
        "alt_km": 451.3992785129667,
        "timestamp": "2025-12-03T10:52:56.220778+00:00",
        "meta_object_name": "SHIYAN-32 03",
        "meta_object_id": "2025-255D",
        "meta_epoch": "2025-12-03T03:48:27.506880",
        "meta_mean_motion": 15.42622193,
        "meta_eccentricity": 0.0015469,
        "meta_inclination": 52.9973,
        "meta_ra_of_asc_node": 223.5532,
        "meta_arg_of_pericenter": 13.41,
        "meta_mean_anomaly": 346.7312,
        "meta_ephemeris_type": 0,
        "meta_classification_type": "U",
        "meta_norad_cat_id": 66379,
        "meta_element_set_no": 999,
        "meta_rev_at_epoch": 375,
        "meta_bstar": 0.00057443,
        "meta_mean_motion_dot": 0.00025157,
        "meta_mean_motion_ddot": 0,
        "tle_line1": "1 66379U 25255D   25337.15865170  .00025157  00000+0  57443-3 0  9998",
        "tle_line2": "2 66379  52.9973 223.5532 0015469  13.4100 346.7312 15.42622193  3750"
      },
      "geometry": {
        "type": "Point",
        "coordinates": [
          53.351602593313956,
          -14.441916638322514
        ]
      }
    },
    {
      "type": "Feature",
      "properties": {
        "norad_id": 66380,
        "name": "STARLINK-35139",
        "group": "last-30-days",
        "lat": 29.32092830101143,
        "lon": 103.50720987692138,
        "alt_km": 443.2613922536175,
        "timestamp": "2025-12-03T10:52:56.220789+00:00",
        "meta_object_name": "STARLINK-35139",
        "meta_object_id": "2025-257A",
        "meta_epoch": "2025-12-03T04:00:01.998720",
        "meta_mean_motion": 15.39578417,
        "meta_eccentricity": 0.0001181,
        "meta_inclination": 53.1586,
        "meta_ra_of_asc_node": 309.7629,
        "meta_arg_of_pericenter": 90.3885,
        "meta_mean_anomaly": 261.6374,
        "meta_ephemeris_type": 0,
        "meta_classification_type": "U",
        "meta_norad_cat_id": 66380,
        "meta_element_set_no": 999,
        "meta_rev_at_epoch": 489,
        "meta_bstar": 0.00081433,
        "meta_mean_motion_dot": 0.00032266,
        "meta_mean_motion_ddot": 0,
        "tle_line1": "1 66380U 25257A   25337.16668980  .00032266  00000+0  81433-3 0  9998",
        "tle_line2": "2 66380  53.1586 309.7629 0001181  90.3885 261.6374 15.39578417  4893"
      },
      "geometry": {
        "type": "Point",
        "coordinates": [
          103.50720987692138,
          29.32092830101143
        ]
      }
    },
    {
      "type": "Feature",
      "properties": {
        "norad_id": 66381,
        "name": "STARLINK-35158",
        "group": "last-30-days",
        "lat": 27.97581239101613,
        "lon": 104.93867648386195,
        "alt_km": 443.3476042847051,
        "timestamp": "2025-12-03T10:52:56.220800+00:00",
        "meta_object_name": "STARLINK-35158",
        "meta_object_id": "2025-257B",
        "meta_epoch": "2025-12-03T04:00:01.998720",
        "meta_mean_motion": 15.39582648,
        "meta_eccentricity": 0.0001442,
        "meta_inclination": 53.1587,
        "meta_ra_of_asc_node": 309.7586,
        "meta_arg_of_pericenter": 93.1907,
        "meta_mean_anomaly": 260.6708,
        "meta_ephemeris_type": 0,
        "meta_classification_type": "U",
        "meta_norad_cat_id": 66381,
        "meta_element_set_no": 999,
        "meta_rev_at_epoch": 495,
        "meta_bstar": 0.00072175,
        "meta_mean_motion_dot": 0.00028542,
        "meta_mean_motion_ddot": 0,
        "tle_line1": "1 66381U 25257B   25337.16668980  .00028542  00000+0  72175-3 0  9994",
        "tle_line2": "2 66381  53.1587 309.7586 0001442  93.1907 260.6708 15.39582648  4951"
      },
      "geometry": {
        "type": "Point",
        "coordinates": [
          104.93867648386195,
          27.97581239101613
        ]
      }
    },
    {
      "type": "Feature",
      "properties": {
        "norad_id": 66382,
        "name": "STARLINK-35639",
        "group": "last-30-days",
        "lat": 9.543798782380753,
        "lon": 121.11666809773578,
        "alt_km": 446.6542378605427,
        "timestamp": "2025-12-03T10:52:56.220811+00:00",
        "meta_object_name": "STARLINK-35639",
        "meta_object_id": "2025-257C",
        "meta_epoch": "2025-12-03T04:00:01.998720",
        "meta_mean_motion": 15.39577814,
        "meta_eccentricity": 0.0001367,
        "meta_inclination": 53.159,
        "meta_ra_of_asc_node": 309.7097,
        "meta_arg_of_pericenter": 91.3775,
        "meta_mean_anomaly": 286.4028,
        "meta_ephemeris_type": 0,
        "meta_classification_type": "U",
        "meta_norad_cat_id": 66382,
        "meta_element_set_no": 999,
        "meta_rev_at_epoch": 495,
        "meta_bstar": 0.00069601,
        "meta_mean_motion_dot": 0.00027502,
        "meta_mean_motion_ddot": 0,
        "tle_line1": "1 66382U 25257C   25337.16668980  .00027502  00000+0  69601-3 0  9990",
        "tle_line2": "2 66382  53.1590 309.7097 0001367  91.3775 286.4028 15.39577814  4952"
      },
      "geometry": {
        "type": "Point",
        "coordinates": [
          121.11666809773578,
          9.543798782380753
        ]
      }
    },
    {
      "type": "Feature",
      "properties": {
        "norad_id": 66383,
        "name": "STARLINK-35690",
        "group": "last-30-days",
        "lat": -10.991392946032914,
        "lon": 136.6798112151627,
        "alt_km": 448.0451661158477,
        "timestamp": "2025-12-03T10:52:56.220822+00:00",
        "meta_object_name": "STARLINK-35690",
        "meta_object_id": "2025-257D",
        "meta_epoch": "2025-12-03T04:00:01.998720",
        "meta_mean_motion": 15.4157199,
        "meta_eccentricity": 0.0001152,
        "meta_inclination": 53.1592,
        "meta_ra_of_asc_node": 309.6607,
        "meta_arg_of_pericenter": 104.0539,
        "meta_mean_anomaly": 298.1955,
        "meta_ephemeris_type": 0,
        "meta_classification_type": "U",
        "meta_norad_cat_id": 66383,
        "meta_element_set_no": 999,
        "meta_rev_at_epoch": 495,
        "meta_bstar": -0.062933,
        "meta_mean_motion_dot": -0.02388453,
        "meta_mean_motion_ddot": 0,
        "tle_line1": "1 66383U 25257D   25337.16668980 -.02388453  00000+0 -62933-1 0  9999",
        "tle_line2": "2 66383  53.1592 309.6607 0001152 104.0539 298.1955 15.41571990  4954"
      },
      "geometry": {
        "type": "Point",
        "coordinates": [
          136.6798112151627,
          -10.991392946032914
        ]
      }
    },
    {
      "type": "Feature",
      "properties": {
        "norad_id": 66384,
        "name": "STARLINK-35662",
        "group": "last-30-days",
        "lat": -12.44032599083082,
        "lon": 137.82415559723273,
        "alt_km": 448.29717217666985,
        "timestamp": "2025-12-03T10:52:56.220835+00:00",
        "meta_object_name": "STARLINK-35662",
        "meta_object_id": "2025-257E",
        "meta_epoch": "2025-12-03T04:00:01.998720",
        "meta_mean_motion": 15.41552093,
        "meta_eccentricity": 0.0001105,
        "meta_inclination": 53.1594,
        "meta_ra_of_asc_node": 309.658,
        "meta_arg_of_pericenter": 97.4017,
        "meta_mean_anomaly": 306.6958,
        "meta_ephemeris_type": 0,
        "meta_classification_type": "U",
        "meta_norad_cat_id": 66384,
        "meta_element_set_no": 999,
        "meta_rev_at_epoch": 495,
        "meta_bstar": -0.062398,
        "meta_mean_motion_dot": -0.02368937,
        "meta_mean_motion_ddot": 0,
        "tle_line1": "1 66384U 25257E   25337.16668980 -.02368937  00000+0 -62398-1 0  9990",
        "tle_line2": "2 66384  53.1594 309.6580 0001105  97.4017 306.6958 15.41552093  4952"
      },
      "geometry": {
        "type": "Point",
        "coordinates": [
          137.82415559723273,
          -12.44032599083082
        ]
      }
    }
  ]
}